{"type": "FeatureCollection", "features": [{"type": "Feature", "properties": {"norad_id": 66454, "name": "VIASAT-3 F2", "group": "last-30-days", "lat": 1.2272936481865173, "lon": -54.63754285300703, "alt_km": 25116.433306878575, "timestamp": "2025-12-14T14:39:28.130622+00:00", "meta": {"OBJECT_NAME": "VIASAT-3 F2", "OBJECT_ID": "2025-261A", "EPOCH": "2025-12-12T22:24:17.478432", "MEAN_MOTION": 2.09869596, "ECCENTRICITY": 0.2249784, "INCLINATION": 5.3891, "RA_OF_ASC_NODE": 292.3457, "ARG_OF_PERICENTER": 185.8732, "MEAN_ANOMALY": 3.755, "EPHEMERIS_TYPE": 0, "CLASSIFICATION_TYPE": "U", "NORAD_CAT_ID": 66454, "ELEMENT_SET_NO": 999, "REV_AT_EPOCH": 64, "BSTAR": 0, "MEAN_MOTION_DOT": -8.1e-07, "MEAN_MOTION_DDOT": 0}, "tle": {"line1": "1 66454U 25261A   25346.93353563 -.00000081  00000+0  00000+0 0  9996", "line2": "2 66454   5.3891 292.3457 2249784 185.8732   3.7550  2.09869596   649"}}, "geometry": {"type": "Point", "coordinates": [-54.63754285300703, 1.2272936481865173]}}, {"type": "Feature", "properties": {"norad_id": 66455, "name": "ATLAS 5 CENTAUR R/B", "group": "last-30-days", "lat": 4.6134240055403515, "lon": -20.073715527537498, "alt_km": 21496.32291834355, "timestamp": "2025-12-14T14:39:28.130674+00:00", "meta": {"OBJECT_NAME": "ATLAS 5 CENTAUR R/B", "OBJECT_ID": "2025-261B", "EPOCH": "2025-12-13T20:38:46.907232", "MEAN_MOTION": 2.28260017, "ECCENTRICITY": 0.23294251, "INCLINATION": 6.1444, "RA_OF_ASC_NODE": 291.5038, "ARG_OF_PERICENTER": 186.7091, "MEAN_ANOMALY": 345.4941, "EPHEMERIS_TYPE": 0, "CLASSIFICATION_TYPE": "U", "NORAD_CAT_ID": 66455, "ELEMENT_SET_NO": 999, "REV_AT_EPOCH": 67, "BSTAR": 0, "MEAN_MOTION_DOT": -7.2e-07, "MEAN_MOTION_DDOT": 0}, "tle": {"line1": "1 66455U 25261B   25347.86026513 -.00000072  00000+0  00000+0 0  9992", "line2": "2 66455   6.1444 291.5038 2329425 186.7091 345.4941  2.28260017   675"}}, "geometry": {"type": "Point", "coordinates": [-20.073715527537498, 4.6134240055403515]}}, {"type": "Feature", "properties": {"norad_id": 66456, "name": "STARLINK-35643", "group": "last-30-days", "lat": 42.00732794239549, "lon": 165.7131066688455, "alt_km": 436.56468214525376, "timestamp": "2025-12-14T14:39:28.130696+00:00", "meta": {"OBJECT_NAME": "STARLINK-35643", "OBJECT_ID": "2025-262A", "EPOCH": "2025-12-13T22:39:46.920384", "MEAN_MOTION": 15.40670264, "ECCENTRICITY": 0.0001155, "INCLINATION": 43.001, "RA_OF_ASC_NODE": 64.6743, "ARG_OF_PERICENTER": 67.7496, "MEAN_ANOMALY": 292.3483, "EPHEMERIS_TYPE": 0, "CLASSIFICATION_TYPE": "U", "NORAD_CAT_ID": 66456, "ELEMENT_SET_NO": 999, "REV_AT_EPOCH": 574, "BSTAR": 0.0012902401, "MEAN_MOTION_DOT": 0.00053921, "MEAN_MOTION_DDOT": 0}, "tle": {"line1": "1 66456U 25262A   25347.94429306  .00053921  00000+0  12902-2 0  9997", "line2": "2 66456  43.0010  64.6743 0001155  67.7496 292.3483 15.40670264  5740"}}, "geometry": {"type": "Point", "coordinates": [165.7131066688455, 42.00732794239549]}}, {"type": "Feature", "properties": {"norad_id": 66457, "name": "STARLINK-35466", "group": "last-30-days", "lat": 33.519443551604695, "lon": -164.53702387445114, "alt_km": 437.220711710017, "timestamp": "2025-12-14T14:39:28.130710+00:00", "meta": {"OBJECT_NAME": "STARLINK-35466", "OBJECT_ID": "2025-262B", "EPOCH": "2025-12-13T22:33:20.355552", "MEAN_MOTION": 15.40671751, "ECCENTRICITY": 0.00024231, "INCLINATION": 42.9963, "RA_OF_ASC_NODE": 64.639, "ARG_OF_PERICENTER": 88.46, "MEAN_ANOMALY": 271.6534, "EPHEMERIS_TYPE": 0, "CLASSIFICATION_TYPE": "U", "NORAD_CAT_ID": 66457, "ELEMENT_SET_NO": 999, "REV_AT_EPOCH": 574, "BSTAR": 0.0011376506, "MEAN_MOTION_DOT": 0.00047472, "MEAN_MOTION_DDOT": 0}, "tle": {"line1": "1 66457U 25262B   25347.93981893  .00047472  00000+0  11377-2 0  9990", "line2": "2 66457  42.9963  64.6390 0002423  88.4600 271.6534 15.40671751  5749"}}, "geometry": {"type": "Point", "coordinates": [-164.53702387445114, 33.519443551604695]}}, {"type": "Feature", "properties": {"norad_id": 66458, "name": "STARLINK-35684", "group": "last-30-days", "lat": 38.67992738966936, "lon": -178.42570611914044, "alt_km": 437.3778420343997, "timestamp": "2025-12-14T14:39:28.130722+00:00", "meta": {"OBJECT_NAME": "STARLINK-35684", "OBJECT_ID": "2025-262C", "EPOCH": "2025-12-13T22:36:33.100992", "MEAN_MOTION": 15.40690701, "ECCENTRICITY": 7.273e-05, "INCLINATION": 42.9971, "RA_OF_ASC_NODE": 64.6569, "ARG_OF_PERICENTER": 53.1172, "MEAN_ANOMALY": 306.9751, "EPHEMERIS_TYPE": 0, "CLASSIFICATION_TYPE": "U", "NORAD_CAT_ID": 66458, "ELEMENT_SET_NO": 999, "REV_AT_EPOCH": 574, "BSTAR": 0.0015993585, "MEAN_MOTION_DOT": 0.00067074, "MEAN_MOTION_DDOT": 0}, "tle": {"line1": "1 66458U 25262C   25347.94204978  .00067074  00000+0  15994-2 0  9993", "line2": "2 66458  42.9971  64.6569 0000727  53.1172 306.9751 15.40690701  5744"}}, "geometry": {"type": "Point", "coordinates": [-178.42570611914044, 38.67992738966936]}}, {"type": "Feature", "properties": {"norad_id": 66459, "name": "STARLINK-35449", "group": "last-30-days", "lat": 26.912667280737825, "lon": -152.26636336350288, "alt_km": 439.89037455880134, "timestamp": "2025-12-14T14:39:28.130734+00:00", "meta": {"OBJECT_NAME": "STARLINK-35449", "OBJECT_ID": "2025-262D", "EPOCH": "2025-12-13T22:30:05.799168", "MEAN_MOTION": 15.40676985, "ECCENTRICITY": 6.006e-05, "INCLINATION": 43, "RA_OF_ASC_NODE": 64.62, "ARG_OF_PERICENTER": 272.096, "MEAN_ANOMALY": 87.9828, "EPHEMERIS_TYPE": 0, "CLASSIFICATION_TYPE": "U", "NORAD_CAT_ID": 66459, "ELEMENT_SET_NO": 999, "REV_AT_EPOCH": 574, "BSTAR": 0.0015166119, "MEAN_MOTION_DOT": 0.00063529, "MEAN_MOTION_DDOT": 0}, "tle": {"line1": "1 66459U 25262D   25347.93756712  .00063529  00000+0  15166-2 0  9993", "line2": "2 66459  43.0000  64.6200 0000600 272.0960  87.9828 15.40676985  5748"}}, "geometry": {"type": "Point", "coordinates": [-152.26636336350288, 26.912667280737825]}}, {"type": "Feature", "properties": {"norad_id": 66460, "name": "STARLINK-35424", "group": "last-30-days", "lat": 19.344226936512953, "lon": -141.42166733542612, "alt_km": 440.8650090033243, "timestamp": "2025-12-14T14:39:28.130748+00:00", "meta": {"OBJECT_NAME": "STARLINK-35424", "OBJECT_ID": "2025-262E", "EPOCH": "2025-12-13T22:26:52.623456", "MEAN_MOTION": 15.40690821, "ECCENTRICITY": 0.00018557, "INCLINATION": 42.9999, "RA_OF_ASC_NODE": 64.6033, "ARG_OF_PERICENTER": 49.5436, "MEAN_ANOMALY": 310.5582, "EPHEMERIS_TYPE": 0, "CLASSIFICATION_TYPE": "U", "NORAD_CAT_ID": 66460, "ELEMENT_SET_NO": 999, "REV_AT_EPOCH": 574, "BSTAR": 0.0018205791, "MEAN_MOTION_DOT": 0.0007649, "MEAN_MOTION_DDOT": 0}, "tle": {"line1": "1 66460U 25262E   25347.93533129  .00076490  00000+0  18206-2 0  9999", "line2": "2 66460  42.9999  64.6033 0001855  49.5436 310.5582 15.40690821  5744"}}, "geometry": {"type": "Point", "coordinates": [-141.42166733542612, 19.344226936512953]}}, {"type": "Feature", "properties": {"norad_id": 66461, "name": "STARLINK-35132", "group": "last-30-days", "lat": 11.082501561289206, "lon": -131.45387675926406, "alt_km": 442.90634145211425, "timestamp": "2025-12-14T14:39:28.130760+00:00", "meta": {"OBJECT_NAME": "STARLINK-35132", "OBJECT_ID": "2025-262F", "EPOCH": "2025-12-13T14:36:50.743296", "MEAN_MOTION": 15.4073966, "ECCENTRICITY": 0.0003855, "INCLINATION": 43.008, "RA_OF_ASC_NODE": 66.4512, "ARG_OF_PERICENTER": 270.6345, "MEAN_ANOMALY": 89.407, "EPHEMERIS_TYPE": 0, "CLASSIFICATION_TYPE": "U", "NORAD_CAT_ID": 66461, "ELEMENT_SET_NO": 999, "REV_AT_EPOCH": 569, "BSTAR": 0.0011620266, "MEAN_MOTION_DOT": 0.00048619, "MEAN_MOTION_DDOT": 0}, "tle": {"line1": "1 66461U 25262F   25347.60892064  .00048619  00000+0  11620-2 0  9995", "line2": "2 66461  43.0080  66.4512 0003855 270.6345  89.4070 15.40739660  5691"}}, "geometry": {"type": "Point", "coordinates": [-131.45387675926406, 11.082501561289206]}}, {"type": "Feature", "properties": {"norad_id": 66462, "name": "STARLINK-35499", "group": "last-30-days", "lat": 2.664071850180089, "lon": -122.21614221392903, "alt_km": 443.4685758792293, "timestamp": "2025-12-14T14:39:28.130771+00:00", "meta": {"OBJECT_NAME": "STARLINK-35499", "OBJECT_ID": "2025-262G", "EPOCH": "2025-12-13T13:00:16.774848", "MEAN_MOTION": 15.40716698, "ECCENTRICITY": 0.00026717, "INCLINATION": 43.0034, "RA_OF_ASC_NODE": 66.8072, "ARG_OF_PERICENTER": 275.5949, "MEAN_ANOMALY": 84.4603, "EPHEMERIS_TYPE": 0, "CLASSIFICATION_TYPE": "U", "NORAD_CAT_ID": 66462, "ELEMENT_SET_NO": 999, "REV_AT_EPOCH": 568, "BSTAR": 0.0017330173, "MEAN_MOTION_DOT": 0.00072827, "MEAN_MOTION_DDOT": 0}, "tle": {"line1": "1 66462U 25262G   25347.54186082  .00072827  00000+0  17330-2 0  9997", "line2": "2 66462  43.0034  66.8072 0002671 275.5949  84.4603 15.40716698  5687"}}, "geometry": {"type": "Point", "coordinates": [-122.21614221392903, 2.664071850180089]}}, {"type": "Feature", "properties": {"norad_id": 66463, "name": "STARLINK-35463", "group": "last-30-days", "lat": -13.814473423206753, "lon": -104.11400293472524, "alt_km": 445.03169445178355, "timestamp": "2025-12-14T14:39:28.130783+00:00", "meta": {"OBJECT_NAME": "STARLINK-35463", "OBJECT_ID": "2025-262H", "EPOCH": "2025-12-13T22:00:00.999936", "MEAN_MOTION": 15.40673053, "ECCENTRICITY": 0.00016576, "INCLINATION": 43.0009, "RA_OF_ASC_NODE": 64.5868, "ARG_OF_PERICENTER": 261.0704, "MEAN_ANOMALY": 45.2231, "EPHEMERIS_TYPE": 0, "CLASSIFICATION_TYPE": "U", "NORAD_CAT_ID": 66463, "ELEMENT_SET_NO": 999, "REV_AT_EPOCH": 582, "BSTAR": -4.5415386e-05, "MEAN_MOTION_DOT": -2.198e-05, "MEAN_MOTION_DDOT": 0}, "tle": {"line1": "1 66463U 25262H   25347.91667824 -.00002198  00000+0 -45415-4 0  9990", "line2": "2 66463  43.0009  64.5868 0001657 261.0704  45.2231 15.40673053  5825"}}, "geometry": {"type": "Point", "coordinates": [-104.11400293472524, -13.814473423206753]}}]}